MEAN_MOTION;ECCENTRICITY;INCLINATION;RA_OF_ASC_NODE;ARG_OF_PERICENTER;MEAN_ANOMALY;BSTAR;MEAN_MOTION_DOT;MEAN_MOTION_DDOT;TYPE
12.62267144;1.16E-5;51.9981;344.9129;86.9702;350.969;3.4767E-5;-9.8E-7;0;Globalstar
12.6226718;1.33E-5;51.998;343.9048;84.2487;59.1053;6.1452E-5;-9.3E-7;0;Globalstar
12.62267243;1.45E-5;51.9979;341.7775;83.885;356.0062;0.00010073;-8.6E-7;0;Globalstar
12.62267237;1.46E-5;51.9978;340.7635;78.55;75.6237;9.5491E-5;-8.7E-7;0;Globalstar
12.62267262;1.61E-5;51.9978;338.8855;76.5655;1.8992;0.00011137;-8.4E-7;0;Globalstar
12.62267267;1.65E-5;51.9977;337.8976;73.0424;40.5811;0.00012059;-8.2E-7;0;Globalstar
12.62267279;1.73E-5;51.9976;336.2591;72.8839;327.2805;0.00011984;-8.2E-7;0;Globalstar
12.62267291;1.88E-5;51.9975;333.6228;69.4614;307.3171;0.00013735;-7.9E-7;0;Globalstar
12.62267306;1.87E-5;51.9975;333.3715;70.1473;321.7908;0.0001388;-7.9E-7;0;Globalstar
12.62267347;2.09E-5;51.9973;330.2317;67.9521;332.4403;0.0001481;-7.7E-7;0;Globalstar
12.62267449;2.3E-5;51.9972;326.8308;64.3843;14.4478;0.00018271;-7.1E-7;0;Globalstar
12.62267422;2.43E-5;51.997;323.6948;65.242;16.2592;0.0001263;-8.1E-7;0;Globalstar
12.62267479;2.56E-5;51.9969;320.8035;63.6245;15.2209;0.00012204;-8.2E-7;0;Globalstar
12.6226751;2.66E-5;51.9968;319.79;63.0104;89.3873;0.00013037;-8.0E-7;0;Globalstar
12.6226752;2.74E-5;51.9967;317.6667;64.3928;18.4921;0.00010102;-8.6E-7;0;Globalstar
12.62267546;2.84E-5;51.9965;315.5463;63.5338;305.5647;9.6841E-5;-8.6E-7;0;Globalstar
12.62267546;2.83E-5;51.9965;314.5384;64.636;9.4322;7.8792E-5;-9.0E-7;0;Globalstar
12.6226757;2.97E-5;51.9962;311.6395;66.1128;16.5857;6.8636E-5;-9.1E-7;0;Globalstar
12.6226757;2.98E-5;51.9962;311.3853;65.603;36.7369;7.3438E-5;-9.1E-7;0;Globalstar
12.622676;3.07E-5;51.9961;309.5036;63.8756;328.1335;9.1956E-5;-8.7E-7;0;Globalstar
12.62267592;3.09E-5;51.996;308.4804;66.4597;53.3893;7.9644E-5;-8.9E-7;0;Globalstar
12.6226758;3.11E-5;51.996;308.227;66.6651;71.5617;7.5567E-5;-9.0E-7;0;Globalstar
12.62267473;3.14E-5;51.996;306.3627;69.2004;332.7703;-3.7314E-5;-1.1E-6;0;Globalstar
12.62267685;3.0E-5;51.9964;305.3378;68.2854;63.396;0.00011812;-8.3E-7;0;Globalstar
12.62267681;3.26E-5;51.9958;304.6271;69.2111;44.1484;0.00013005;-8.0E-7;0;Globalstar
12.62267701;3.28E-5;51.9957;303.222;69.5957;341.7106;0.00014417;-7.8E-7;0;Globalstar
12.62267704;3.34E-5;51.9957;302.2419;69.9352;4.7511;0.00015422;-7.6E-7;0;Globalstar
12.62267681;3.37E-5;51.9956;299.3093;70.6196;62.8083;0.000131;-8.0E-7;0;Globalstar
12.62267704;3.4E-5;51.9955;297.4169;70.1765;8.8915;0.00013827;-7.9E-7;0;Globalstar
12.62267699;3.46E-5;51.9954;296.1626;69.6923;82.1296;0.00012492;-8.1E-7;0;Globalstar
12.62267702;3.48E-5;51.9954;294.308;68.9113;331.952;0.00010201;-8.5E-7;0;Globalstar
12.62267719;3.57E-5;51.9953;293.0243;68.2931;89.3434;0.00011715;-8.3E-7;0;Globalstar
12.62267757;3.57E-5;51.9953;291.1778;69.088;325.6413;0.00012019;-8.2E-7;0;Globalstar
12.62267745;3.6E-5;51.9953;290.142;69.821;71.4387;9.286E-5;-8.7E-7;0;Globalstar
12.62267745;3.65E-5;51.9952;287.2533;69.8988;64.5065;4.3149E-5;-9.6E-7;0;Globalstar
12.62267752;3.67E-5;51.9952;287.0005;69.8419;82.0609;4.4676E-5;-9.6E-7;0;Globalstar
12.62267792;3.69E-5;51.9951;284.6379;70.2152;9.3183;2.9165E-5;-9.9E-7;0;Globalstar
12.62267799;3.74E-5;51.995;281.2464;70.6876;32.7627;-3.8516E-6;-1.04E-6;0;Globalstar
12.62267844;3.67E-5;51.995;279.3784;73.8445;298.8377;-1.1861E-6;-1.04E-6;0;Globalstar
12.62267808;3.7E-5;51.995;278.1202;74.7597;16.5347;-2.9879E-5;-1.09E-6;0;Globalstar
12.62267769;3.79E-5;51.9949;274.9743;72.4376;36.1529;-4.568E-5;-1.12E-6;0;Globalstar
12.62267799;3.73E-5;51.9949;274.4709;73.9842;66.1537;-3.2692E-5;-1.1E-6;0;Globalstar
12.62267775;3.51E-5;51.9954;272.5823;73.5293;6.4958;-7.6673E-6;-1.05E-6;0;Globalstar
12.62267754;3.49E-5;51.9954;270.207;73.987;312.7314;-2.6921E-5;-1.09E-6;0;Globalstar
12.62267759;3.53E-5;51.9954;269.1906;73.5663;30.7219;-1.719E-5;-1.07E-6;0;Globalstar
12.62267765;3.51E-5;51.9954;267.0662;74.0396;322.2044;-1.9998E-5;-1.07E-6;0;Globalstar
12.62267797;3.5E-5;51.9954;263.1626;73.877;30.8699;-1.2417E-5;-1.06E-6;0;Globalstar
12.62267783;3.75E-5;51.9949;262.6326;74.9472;100.82;7.7139E-5;-9.0E-7;0;Globalstar
12.62267774;3.7E-5;51.9949;260.2686;74.8;30.4672;6.5055E-5;-9.2E-7;0;Globalstar
12.62267823;3.68E-5;51.9949;257.9103;74.1979;312.3208;7.8899E-5;-9.0E-7;0;Globalstar
12.6226782;3.68E-5;51.995;256.6284;73.431;67.2319;6.9503E-5;-9.1E-7;0;Globalstar
12.6226781;3.66E-5;51.995;254.7747;73.603;314.9251;2.5728E-5;-9.9E-7;0;Globalstar
12.62267825;3.65E-5;51.9951;253.7479;72.7398;48.9955;3.3123E-5;-9.8E-7;0;Globalstar
12.62267789;3.6E-5;51.9951;251.6082;73.1001;3.5633;-3.5026E-5;-1.1E-6;0;Globalstar
12.62267794;3.59E-5;51.9951;251.1067;72.8198;32.6515;-2.8772E-5;-1.09E-6;0;Globalstar
12.62267745;3.46E-5;51.9955;247.6915;71.0653;94.3809;-2.8893E-5;-1.09E-6;0;Globalstar
12.62267762;3.4E-5;51.9955;244.5484;70.9702;107.5444;-1.5393E-5;-1.07E-6;0;Globalstar
12.62267748;3.36E-5;51.9955;242.1878;71.3496;31.8601;-1.4906E-5;-1.06E-6;0;Globalstar
12.62267743;3.32E-5;51.9955;239.5531;70.4877;6.8761;-2.0144E-5;-1.07E-6;0;Globalstar
12.62267736;3.33E-5;51.9956;238.5458;69.914;71.7041;-3.0733E-5;-1.09E-6;0;Globalstar
12.62267763;3.22E-5;51.9956;236.4173;69.9373;9.8277;-1.2747E-5;-1.06E-6;0;Globalstar
12.62267728;3.33E-5;51.9952;235.4057;69.3458;80.8316;-9.1246E-6;-1.05E-6;0;Globalstar
12.62267718;3.29E-5;51.9952;232.5179;68.8652;73.1262;3.393E-5;-9.8E-7;0;Globalstar
12.62267757;3.06E-5;51.9957;229.1562;67.149;55.0503;-2.5658E-5;-1.08E-6;0;Globalstar
12.62267757;3.06E-5;51.9957;229.1562;67.149;55.0503;-2.5658E-5;-1.08E-6;0;Globalstar
12.62267725;3.07E-5;51.9957;227.4985;66.8186;10.6713;-3.9765E-5;-1.11E-6;0;Globalstar
12.62267756;3.05E-5;51.9958;226.9962;67.0943;40.5575;-2.2573E-5;-1.08E-6;0;Globalstar
12.62267748;3.04E-5;51.9957;224.3637;65.1817;13.1279;-9.4464E-6;-1.05E-6;0;Globalstar
12.62267775;3.22E-5;51.9954;223.6293;65.6602;28.9277;0.00010488;-8.5E-7;0;Globalstar
12.62265188;3.77E-5;51.9965;221.4714;93.7751;343.9945;8.3083E-5;-8.9E-7;0;Globalstar
12.62262788;3.6E-5;51.9948;220.4632;71.7159;70.8938;7.8309E-5;-9.0E-7;0;Globalstar
12.62263952;2.88E-5;51.9954;217.3213;64.9425;89.0876;3.3817E-5;-9.8E-7;0;Globalstar
12.62263883;2.98E-5;51.9953;214.4358;63.4266;79.4959;1.4628E-6;-1.04E-6;0;Globalstar
12.62263876;3.05E-5;51.9953;213.0631;61.9391;330.888;-1.4472E-5;-1.06E-6;0;Globalstar
12.62263893;3.09E-5;51.9952;211.2944;60.7949;93.1295;-2.6382E-5;-1.08E-6;0;Globalstar
12.62263885;3.12E-5;51.9952;209.1966;60.2665;346.135;-3.6541E-5;-1.1E-6;0;Globalstar
12.62263877;3.15E-5;51.9952;208.1857;59.0691;56.8689;-5.1317E-5;-1.13E-6;0;Globalstar
12.62263879;3.14E-5;51.9951;206.0059;58.9799;72.0208;-2.7295E-5;-1.09E-6;0;Globalstar
12.62263888;3.17E-5;51.995;205.0481;57.8808;63.3201;-1.5452E-5;-1.07E-6;0;Globalstar
12.62263924;3.17E-5;51.995;202.912;56.2513;14.6615;5.0271E-5;-9.5E-7;0;Globalstar
12.62263932;3.17E-5;51.9949;202.1572;55.2579;62.6751;5.3897E-5;-9.4E-7;0;Globalstar
12.62263943;3.21E-5;51.9948;199.7727;54.0924;24.5014;9.5157E-5;-8.7E-7;0;Globalstar
12.62263949;3.22E-5;51.9948;199.2699;53.4403;55.9027;0.00010005;-8.6E-7;0;Globalstar
12.62263955;3.22E-5;51.9948;199.0217;53.3525;66.6898;0.00010656;-8.5E-7;0;Globalstar
12.62263984;3.24E-5;51.9947;196.6345;51.5952;33.0092;0.00015298;-7.6E-7;0;Globalstar
12.62263983;3.26E-5;51.9947;195.6939;49.8869;359.3632;0.00013741;-7.9E-7;0;Globalstar
12.62264001;3.24E-5;51.9947;194.9815;49.2122;343.705;0.00015836;-7.5E-7;0;Globalstar
12.62264017;3.29E-5;51.9946;193.6982;48.5773;100.6824;0.00017783;-7.2E-7;0;Globalstar
12.62264028;3.31E-5;51.9946;193.2124;48.2703;106.2574;0.00017628;-7.2E-7;0;Globalstar
12.62264049;3.32E-5;51.9946;191.8347;47.2007;4.5225;0.00018273;-7.1E-7;0;Globalstar
12.62264079;3.42E-5;51.9945;190.1037;45.4654;71.1259;0.00019695;-6.8E-7;0;Globalstar
12.62264082;3.47E-5;51.9945;187.944;44.4106;57.0487;0.00016422;-7.4E-7;0;Globalstar
12.62264122;3.52E-5;51.9945;187.1856;43.79;110.0728;0.00017493;-7.2E-7;0;Globalstar
12.62264162;3.6E-5;51.9943;184.2933;42.7264;110.062;0.00014691;-7.7E-7;0;Globalstar
12.62264167;3.74E-5;51.9942;180.0503;38.8632;329.465;6.0911E-5;-9.3E-7;0;Globalstar
12.62264155;3.77E-5;51.9941;179.2798;39.3809;39.4859;2.6594E-5;-9.9E-7;0;Globalstar
12.6226416;3.92E-5;51.994;176.9095;38.0691;340.1166;-3.5022E-6;-1.04E-6;0;Globalstar
12.62264199;4.07E-5;51.9939;175.1296;37.7158;118.2293;-4.9978E-7;-1.04E-6;0;Globalstar
12.62264196;4.18E-5;51.9937;172.7641;37.4961;50.5837;-8.2657E-6;-1.05E-6;0;Globalstar
12.62264204;4.2E-5;51.9937;172.5031;37.6081;80.1659;-2.1121E-6;-1.04E-6;0;Globalstar
12.62264208;4.22E-5;51.9937;172.2395;37.4227;114.0152;-2.034E-6;-1.04E-6;0;Globalstar
12.6226424;4.37E-5;51.9936;169.5782;37.1071;127.9483;3.1725E-5;-9.8E-7;0;Globalstar
12.62264247;4.41E-5;51.9935;169.102;36.5284;119.7111;3.3359E-5;-9.8E-7;0;Globalstar
12.62264236;4.56E-5;51.9934;166.4753;36.5983;81.6102;5.2778E-5;-9.4E-7;0;Globalstar
12.62264243;4.58E-5;51.9934;166.2117;36.4421;115.2346;5.6915E-5;-9.4E-7;0;Globalstar
12.62264259;4.72E-5;51.9933;163.5897;36.565;70.12;0.00010027;-8.6E-7;0;Globalstar
12.62264297;4.89E-5;51.9933;160.669;36.8146;110.9485;0.00014028;-7.9E-7;0;Globalstar
12.62264291;5.06E-5;51.9933;157.7842;36.6211;98.4036;0.00012903;-8.1E-7;0;Globalstar
12.622643;5.19E-5;51.9933;155.6608;36.6366;28.8846;0.00011469;-8.3E-7;0;Globalstar
12.62264334;5.29E-5;51.9933;154.3891;37.2203;127.2248;0.00012726;-8.1E-7;0;Globalstar
12.62264345;5.38E-5;51.9934;152.2787;37.7581;37.7087;9.1689E-5;-8.7E-7;0;Globalstar
12.62264353;5.65E-5;51.9934;148.3699;37.7069;114.0919;3.4914E-5;-9.8E-7;0;Globalstar
12.62264353;5.67E-5;51.9934;148.1591;37.6627;68.8588;2.8097E-5;-9.9E-7;0;Globalstar
12.62264339;5.85E-5;51.9934;145.2451;38.299;99.3162;-3.3336E-5;-1.1E-6;0;Globalstar
12.62264344;5.87E-5;51.9934;144.9908;38.3169;118.908;-3.9807E-5;-1.11E-6;0;Globalstar
12.62264337;6.14E-5;51.9934;142.1026;38.8738;110.8453;-7.5545E-5;-1.17E-6;0;Globalstar
